OBJECT B                
1 51825U 22019B   26091.95734384  .00075747  00000+0  77702-3 0  9991
2 51825  97.3506 180.2381 0005524  53.7898 306.3872 15.64689511227806
